{
    "links": {
        "self": "http://www.neowsapp.com/rest/v1/neo/3826712?api_key=iIulBulltgU6a56xZRHN4H3l9WmuAYTsLGpBGhQ2"
    },
    "id": "3826712",
    "neo_reference_id": "3826712",
    "name": "(2018 PZ19)",
    "designation": "2018 PZ19",
    "nasa_jpl_url": "http://ssd.jpl.nasa.gov/sbdb.cgi?sstr=3826712",
    "absolute_magnitude_h": 22.8,
    "estimated_diameter": {
        "kilometers": {
            "estimated_diameter_min": 0.0732073989,
            "estimated_diameter_max": 0.1636967205
        },
        "meters": {
            "estimated_diameter_min": 73.2073989347,
            "estimated_diameter_max": 163.696720474
        },
        "miles": {
            "estimated_diameter_min": 0.0454889547,
            "estimated_diameter_max": 0.1017163949
        },
        "feet": {
            "estimated_diameter_min": 240.181762721,
            "estimated_diameter_max": 537.0627483999
        }
    },
    "is_potentially_hazardous_asteroid": false,
    "close_approach_data": [
        {
            "close_approach_date": "2018-08-17",
            "close_approach_date_full": "2018-Aug-17 20:20",
            "epoch_date_close_approach": 1534537200000,
            "relative_velocity": {
                "kilometers_per_second": "16.1280762617",
                "kilometers_per_hour": "58061.0745421362",
                "miles_per_hour": "36076.8937898068"
            },
            "miss_distance": {
                "astronomical": "0.1659171053",
                "lunar": "64.5417539617",
                "kilometers": "24820845.549445711",
                "miles": "15422958.2523483718"
            },
            "orbiting_body": "Earth"
        }
    ],
    "orbital_data": {
        "orbit_id": "2",
        "orbit_determination_date": "2018-08-13 06:53:23",
        "first_observation_date": "2018-08-07",
        "last_observation_date": "2018-08-12",
        "data_arc_in_days": 5,
        "observations_used": 16,
        "orbit_uncertainty": "9",
        "minimum_orbit_intersection": ".059314",
        "jupiter_tisserand_invariant": "3.485",
        "epoch_osculation": "2458339.5",
        "eccentricity": ".57787724683413",
        "semi_major_axis": "2.123931303369222",
        "inclination": "7.177085156692878",
        "ascending_node_longitude": "7.755807758437517",
        "orbital_period": "1130.600375941121",
        "perihelion_distance": ".8965597293133909",
        "perihelion_argument": "15.0453630701119",
        "aphelion_distance": "3.351302877425054",
        "perihelion_time": "2458386.214356730136",
        "mean_anomaly": "345.1254530064611",
        "mean_motion": ".3184148950068526",
        "equinox": "J2000",
        "orbit_class": {
            "orbit_class_type": "APO",
            "orbit_class_description": "Near-Earth asteroid orbits which cross the Earth’s orbit similar to that of 1862 Apollo",
            "orbit_class_range": "a (semi-major axis) > 1.0 AU; q (perihelion) < 1.017 AU"
        }
    },
    "is_sentry_object": false
}